{
  "type": "FeatureCollection",
  "features": [
    {
      "type": "Feature",
      "properties": {
        "norad_id": 31631,
        "name": "FENGYUN 1C DEB",
        "group": "fengyun-1c-debris",
        "lat": 77.3470419675894,
        "lon": -161.0704819377289,
        "alt_km": 645.7944983048037,
        "timestamp": "2025-12-02T17:49:12.311333+00:00",
        "meta_object_name": "FENGYUN 1C DEB",
        "meta_object_id": "1999-025CAM",
        "meta_epoch": "2025-11-28T23:34:31.488960",
        "meta_mean_motion": 14.69293826,
        "meta_eccentricity": 0.00676029,
        "meta_inclination": 99.3421,
        "meta_ra_of_asc_node": 241.7954,
        "meta_arg_of_pericenter": 13.5824,
        "meta_mean_anomaly": 346.7177,
        "meta_ephemeris_type": 0,
        "meta_classification_type": "U",
        "meta_norad_cat_id": 31631,
        "meta_element_set_no": 999,
        "meta_rev_at_epoch": 63770,
        "meta_bstar": 0.0080354526,
        "meta_mean_motion_dot": 0.00049381,
        "meta_mean_motion_ddot": 0,
        "tle_line1": "1 31631U 99025CAM 25332.98230890  .00049381  00000+0  80355-2 0  9990",
        "tle_line2": "2 31631  99.3421 241.7954 0067602  13.5824 346.7177 14.69293826637708"
      },
      "geometry": {
        "type": "Point",
        "coordinates": [
          -161.0704819377289,
          77.3470419675894
        ]
      }
    },
    {
      "type": "Feature",
      "properties": {
        "norad_id": 31633,
        "name": "FENGYUN 1C DEB",
        "group": "fengyun-1c-debris",
        "lat": 80.79451229404475,
        "lon": -79.83527141928151,
        "alt_km": 883.5415626553558,
        "timestamp": "2025-12-02T17:49:12.311343+00:00",
        "meta_object_name": "FENGYUN 1C DEB",
        "meta_object_id": "1999-025CAP",
        "meta_epoch": "2025-11-15T20:43:47.485920",
        "meta_mean_motion": 14.06334417,
        "meta_eccentricity": 0.00656916,
        "meta_inclination": 98.7152,
        "meta_ra_of_asc_node": 335.0833,
        "meta_arg_of_pericenter": 248.7649,
        "meta_mean_anomaly": 110.6494,
        "meta_ephemeris_type": 0,
        "meta_classification_type": "U",
        "meta_norad_cat_id": 31633,
        "meta_element_set_no": 999,
        "meta_rev_at_epoch": 56706,
        "meta_bstar": 0.0011592605,
        "meta_mean_motion_dot": 1.907e-05,
        "meta_mean_motion_ddot": 0,
        "tle_line1": "1 31633U 99025CAP 25319.86374405  .00001907  00000+0  11593-2 0  9995",
        "tle_line2": "2 31633  98.7152 335.0833 0065691 248.7649 110.6494 14.06334417567064"
      },
      "geometry": {
        "type": "Point",
        "coordinates": [
          -79.83527141928151,
          80.79451229404475
        ]
      }
    },
    {
      "type": "Feature",
      "properties": {
        "norad_id": 31634,
        "name": "FENGYUN 1C DEB",
        "group": "fengyun-1c-debris",
        "lat": 41.19405064608349,
        "lon": 14.783219476729315,
        "alt_km": 961.9630778090459,
        "timestamp": "2025-12-02T17:49:12.311353+00:00",
        "meta_object_name": "FENGYUN 1C DEB",
        "meta_object_id": "1999-025CAQ",
        "meta_epoch": "2025-12-02T09:00:27.071712",
        "meta_mean_motion": 13.94657889,
        "meta_eccentricity": 0.0091692,
        "meta_inclination": 99.3683,
        "meta_ra_of_asc_node": 22.7184,
        "meta_arg_of_pericenter": 185.6903,
        "meta_mean_anomaly": 174.3223,
        "meta_ephemeris_type": 0,
        "meta_classification_type": "U",
        "meta_norad_cat_id": 31634,
        "meta_element_set_no": 999,
        "meta_rev_at_epoch": 56379,
        "meta_bstar": 0.00031554,
        "meta_mean_motion_dot": 3.91e-06,
        "meta_mean_motion_ddot": 0,
        "tle_line1": "1 31634U 99025CAQ 25336.37531333  .00000391  00000+0  31554-3 0  9992",
        "tle_line2": "2 31634  99.3683  22.7184 0091692 185.6903 174.3223 13.94657889563792"
      },
      "geometry": {
        "type": "Point",
        "coordinates": [
          14.783219476729315,
          41.19405064608349
        ]
      }
    },
    {
      "type": "Feature",
      "properties": {
        "norad_id": 31639,
        "name": "FENGYUN 1C DEB",
        "group": "fengyun-1c-debris",
        "lat": -76.790306436097,
        "lon": 62.398891894416124,
        "alt_km": 946.3895661939787,
        "timestamp": "2025-12-02T17:49:12.311363+00:00",
        "meta_object_name": "FENGYUN 1C DEB",
        "meta_object_id": "1999-025CAV",
        "meta_epoch": "2025-11-30T08:06:41.226624",
        "meta_mean_motion": 13.85157464,
        "meta_eccentricity": 0.01610819,
        "meta_inclination": 98.7412,
        "meta_ra_of_asc_node": 281.1108,
        "meta_arg_of_pericenter": 178.8374,
        "meta_mean_anomaly": 335.5568,
        "meta_ephemeris_type": 0,
        "meta_classification_type": "U",
        "meta_norad_cat_id": 31639,
        "meta_element_set_no": 999,
        "meta_rev_at_epoch": 93516,
        "meta_bstar": 0.00014166692,
        "meta_mean_motion_dot": 1.38e-06,
        "meta_mean_motion_ddot": 0,
        "tle_line1": "1 31639U 99025CAV 25334.33797716  .00000138  00000+0  14167-3 0  9990",
        "tle_line2": "2 31639  98.7412 281.1108 0161081 178.8374 335.5568 13.85157464935164"
      },
      "geometry": {
        "type": "Point",
        "coordinates": [
          62.398891894416124,
          -76.790306436097
        ]
      }
    },
    {
      "type": "Feature",
      "properties": {
        "norad_id": 31642,
        "name": "FENGYUN 1C DEB",
        "group": "fengyun-1c-debris",
        "lat": 33.64372926958675,
        "lon": -115.17164930759523,
        "alt_km": 843.662504377111,
        "timestamp": "2025-12-02T17:49:12.311373+00:00",
        "meta_object_name": "FENGYUN 1C DEB",
        "meta_object_id": "1999-025CAY",
        "meta_epoch": "2025-12-02T12:06:20.858976",
        "meta_mean_motion": 14.33364895,
        "meta_eccentricity": 0.0118992,
        "meta_inclination": 98.5052,
        "meta_ra_of_asc_node": 58.8791,
        "meta_arg_of_pericenter": 287.0231,
        "meta_mean_anomaly": 71.7944,
        "meta_ephemeris_type": 0,
        "meta_classification_type": "U",
        "meta_norad_cat_id": 31642,
        "meta_element_set_no": 999,
        "meta_rev_at_epoch": 96872,
        "meta_bstar": 0.00046135,
        "meta_mean_motion_dot": 1.33e-05,
        "meta_mean_motion_ddot": 0,
        "tle_line1": "1 31642U 99025CAY 25336.50440809  .00001330  00000+0  46135-3 0  9998",
        "tle_line2": "2 31642  98.5052  58.8791 0118992 287.0231  71.7944 14.33364895968728"
      },
      "geometry": {
        "type": "Point",
        "coordinates": [
          -115.17164930759523,
          33.64372926958675
        ]
      }
    },
    {
      "type": "Feature",
      "properties": {
        "norad_id": 31644,
        "name": "FENGYUN 1C DEB",
        "group": "fengyun-1c-debris",
        "lat": -66.96354516098512,
        "lon": -112.97780090987018,
        "alt_km": 648.9175503761589,
        "timestamp": "2025-12-02T17:49:12.311383+00:00",
        "meta_object_name": "FENGYUN 1C DEB",
        "meta_object_id": "1999-025CBA",
        "meta_epoch": "2025-11-21T12:42:57.254976",
        "meta_mean_motion": 14.67516409,
        "meta_eccentricity": 0.01542321,
        "meta_inclination": 98.6708,
        "meta_ra_of_asc_node": 214.1231,
        "meta_arg_of_pericenter": 249.7824,
        "meta_mean_anomaly": 233.9489,
        "meta_ephemeris_type": 0,
        "meta_classification_type": "U",
        "meta_norad_cat_id": 31644,
        "meta_element_set_no": 999,
        "meta_rev_at_epoch": 70733,
        "meta_bstar": 0.0012165012,
        "meta_mean_motion_dot": 8.195e-05,
        "meta_mean_motion_ddot": 0,
        "tle_line1": "1 31644U 99025CBA 25325.52982934  .00008195  00000+0  12165-2 0  9991",
        "tle_line2": "2 31644  98.6708 214.1231 0154232 249.7824 233.9489 14.67516409707336"
      },
      "geometry": {
        "type": "Point",
        "coordinates": [
          -112.97780090987018,
          -66.96354516098512
        ]
      }
    },
    {
      "type": "Feature",
      "properties": {
        "norad_id": 31646,
        "name": "FENGYUN 1C DEB",
        "group": "fengyun-1c-debris",
        "lat": -53.04649752990036,
        "lon": 168.29419125685794,
        "alt_km": 829.1917481984137,
        "timestamp": "2025-12-02T17:49:12.311393+00:00",
        "meta_object_name": "FENGYUN 1C DEB",
        "meta_object_id": "1999-025CBC",
        "meta_epoch": "2025-11-26T07:52:55.511328",
        "meta_mean_motion": 14.14089846,
        "meta_eccentricity": 0.00324277,
        "meta_inclination": 98.6918,
        "meta_ra_of_asc_node": 353.7887,
        "meta_arg_of_pericenter": 261.5394,
        "meta_mean_anomaly": 98.2104,
        "meta_ephemeris_type": 0,
        "meta_classification_type": "U",
        "meta_norad_cat_id": 31646,
        "meta_element_set_no": 999,
        "meta_rev_at_epoch": 62959,
        "meta_bstar": 0.00056384742,
        "meta_mean_motion_dot": 1.035e-05,
        "meta_mean_motion_ddot": 0,
        "tle_line1": "1 31646U 99025CBC 25330.32842027  .00001035  00000+0  56385-3 0  9994",
        "tle_line2": "2 31646  98.6918 353.7887 0032427 261.5394  98.2104 14.14089846629592"
      },
      "geometry": {
        "type": "Point",
        "coordinates": [
          168.29419125685794,
          -53.04649752990036
        ]
      }
    }
  ]
}